{
  "norad_id": 56005,
  "name": "STARLINK-5801",
  "history": [
    {
      "epoch": "2026-04-14T15:23:15.672768Z",
      "apogee_km": 533.8678962111026,
      "perigee_km": 532.0005247700265,
      "latitude_deg": 2.2670258913976374e-05,
      "longitude_deg": 144.99105843990486,
      "height_km": 532.7085925085571,
      "semi_major_axis_km": 6911.071210490564,
      "eccentricity": 0.0001351,
      "inclination_deg": 43.0019,
      "raan_deg": 218.621,
      "arg_perigee_deg": 270.253,
      "mean_anomaly_deg": 89.8161,
      "mean_motion_rev_day": 15.11070441
    },
    {
      "epoch": "2026-04-15T15:11:03.653088Z",
      "apogee_km": 533.9301072007411,
      "perigee_km": 531.9521566393851,
      "latitude_deg": -1.2161763631758383e-05,
      "longitude_deg": 141.60221095397455,
      "height_km": 532.9266866798461,
      "semi_major_axis_km": 6911.078131920062,
      "eccentricity": 0.0001431,
      "inclination_deg": 43.0022,
      "raan_deg": 213.1594,
      "arg_perigee_deg": 257.9181,
      "mean_anomaly_deg": 102.1504,
      "mean_motion_rev_day": 15.11068171
    },
    {
      "epoch": "2026-04-16T18:09:12.360384Z",
      "apogee_km": 533.8809017101012,
      "perigee_km": 531.8932911799639,
      "latitude_deg": -2.6777679947620195e-05,
      "longitude_deg": 89.77023615292177,
      "height_km": 532.9645037366771,
      "semi_major_axis_km": 6911.024096445032,
      "eccentricity": 0.0001438,
      "inclination_deg": 43.0016,
      "raan_deg": 206.9713,
      "arg_perigee_deg": 252.4931,
      "mean_anomaly_deg": 107.5757,
      "mean_motion_rev_day": 15.11085893
    },
    {
      "epoch": "2026-04-17T16:21:50.872320Z",
      "apogee_km": 534.0617216370083,
      "perigee_km": 531.8848601175878,
      "latitude_deg": -3.1109256540339525e-05,
      "longitude_deg": 110.60350543952846,
      "height_km": 532.6749689279233,
      "semi_major_axis_km": 6911.110290877297,
      "eccentricity": 0.00015749,
      "inclination_deg": 43.0024,
      "raan_deg": 201.8772,
      "arg_perigee_deg": 274.0609,
      "mean_anomaly_deg": 86.0056,
      "mean_motion_rev_day": 15.11057624
    },
    {
      "epoch": "2026-04-18T12:59:16.216224Z",
      "apogee_km": 534.0420547012527,
      "perigee_km": 531.8209755018706,
      "latitude_deg": 4.430236147959907e-05,
      "longitude_deg": 155.66980108629352,
      "height_km": 532.5932615211053,
      "semi_major_axis_km": 6911.068515101561,
      "eccentricity": 0.00016069,
      "inclination_deg": 43.0023,
      "raan_deg": 197.146,
      "arg_perigee_deg": 276.0485,
      "mean_anomaly_deg": 84.0178,
      "mean_motion_rev_day": 15.11071325
    },
    {
      "epoch": "2026-04-19T12:47:04.306272Z",
      "apogee_km": 534.077864314082,
      "perigee_km": 531.8806822284823,
      "latitude_deg": -2.424698615145408e-05,
      "longitude_deg": 152.2826567115998,
      "height_km": 532.527279953692,
      "semi_major_axis_km": 6911.116273271282,
      "eccentricity": 0.00015896,
      "inclination_deg": 43.0026,
      "raan_deg": 191.6866,
      "arg_perigee_deg": 282.1264,
      "mean_anomaly_deg": 77.9403,
      "mean_motion_rev_day": 15.11055662
    },
    {
      "epoch": "2026-04-20T06:14:07.435392Z",
      "apogee_km": 534.0275355016411,
      "perigee_km": 531.8698945414108,
      "latitude_deg": 4.4776878148384e-06,
      "longitude_deg": -114.20063355099644,
      "height_km": 532.4906809815947,
      "semi_major_axis_km": 6911.085715021525,
      "eccentricity": 0.0001561,
      "inclination_deg": 43.0028,
      "raan_deg": 187.683,
      "arg_perigee_deg": 282.6804,
      "mean_anomaly_deg": 77.3867,
      "mean_motion_rev_day": 15.11065684
    },
    {
      "epoch": "2026-04-20T22:05:59.452800Z",
      "apogee_km": 534.008493007499,
      "perigee_km": 531.8732463888773,
      "latitude_deg": -1.8123996280009533e-05,
      "longitude_deg": 3.5416719042370652,
      "height_km": 532.4715609670584,
      "semi_major_axis_km": 6911.077869698188,
      "eccentricity": 0.00015448,
      "inclination_deg": 43.0024,
      "raan_deg": 184.0436,
      "arg_perigee_deg": 283.4338,
      "mean_anomaly_deg": 76.6335,
      "mean_motion_rev_day": 15.11068257
    },
    {
      "epoch": "2026-04-22T04:14:31.799616Z",
      "apogee_km": 534.0072894531268,
      "perigee_km": 531.8385988426544,
      "latitude_deg": 4.417067047097196e-07,
      "longitude_deg": -96.74679095677178,
      "height_km": 532.439214817698,
      "semi_major_axis_km": 6911.059944147891,
      "eccentricity": 0.0001569,
      "inclination_deg": 43.0024,
      "raan_deg": 177.1278,
      "arg_perigee_deg": 284.0077,
      "mean_anomaly_deg": 76.0594,
      "mean_motion_rev_day": 15.11074136
    },
    {
      "epoch": "2026-04-24T11:46:03.026784Z",
      "apogee_km": 533.6313050793015,
      "perigee_km": 532.2090095163303,
      "latitude_deg": -2.977561854200552e-05,
      "longitude_deg": 135.3544146786252,
      "height_km": 532.4954031988498,
      "semi_major_axis_km": 6911.057157297816,
      "eccentricity": 0.0001029,
      "inclination_deg": 43.0019,
      "raan_deg": 164.3895,
      "arg_perigee_deg": 286.5842,
      "mean_anomaly_deg": 73.489,
      "mean_motion_rev_day": 15.1107505
    },
    {
      "epoch": "2026-04-25T20:00:01.000224Z",
      "apogee_km": 524.676903951322,
      "perigee_km": 522.4435147343784,
      "latitude_deg": 35.26848181510149,
      "longitude_deg": 134.17322099977181,
      "height_km": 525.9854099962598,
      "semi_major_axis_km": 6901.697209342849,
      "eccentricity": 0.0001618,
      "inclination_deg": 43.0009,
      "raan_deg": 156.9793,
      "arg_perigee_deg": 266.943,
      "mean_anomaly_deg": 215.52,
      "mean_motion_rev_day": 15.14150028
    },
    {
      "epoch": "2026-04-26T22:00:00.999936Z",
      "apogee_km": 518.4535874702988,
      "perigee_km": 515.408311759672,
      "latitude_deg": -42.53820853052874,
      "longitude_deg": -112.05669097745127,
      "height_km": 528.6462704646962,
      "semi_major_axis_km": 6895.067949614985,
      "eccentricity": 0.00022083,
      "inclination_deg": 43.0,
      "raan_deg": 150.9748,
      "arg_perigee_deg": 254.3157,
      "mean_anomaly_deg": 24.442,
      "mean_motion_rev_day": 15.16334221
    },
    {
      "epoch": "2026-04-27T20:00:03.000384Z",
      "apogee_km": 512.0497708739085,
      "perigee_km": 509.7171485462504,
      "latitude_deg": -40.59895569700417,
      "longitude_deg": -123.8878522338001,
      "height_km": 522.0192492076512,
      "semi_major_axis_km": 6889.020459710079,
      "eccentricity": 0.0001693,
      "inclination_deg": 43.0,
      "raan_deg": 145.8717,
      "arg_perigee_deg": 255.8995,
      "mean_anomaly_deg": 356.0879,
      "mean_motion_rev_day": 15.18331318
    },
    {
      "epoch": "2026-04-28T20:00:01.000224Z",
      "apogee_km": 505.89123767421006,
      "perigee_km": 503.1436820138406,
      "latitude_deg": -21.376066578435342,
      "longitude_deg": -41.1836018674916,
      "height_km": 508.3407017330811,
      "semi_major_axis_km": 6882.654459844025,
      "eccentricity": 0.0001996,
      "inclination_deg": 43.0009,
      "raan_deg": 140.2952,
      "arg_perigee_deg": 288.8355,
      "mean_anomaly_deg": 39.1008,
      "mean_motion_rev_day": 15.20438339
    },
    {
      "epoch": "2026-04-29T20:00:01.999008Z",
      "apogee_km": 500.2983782643196,
      "perigee_km": 498.28741776213974,
      "latitude_deg": 32.526650736918214,
      "longitude_deg": 19.76048963069948,
      "height_km": 501.12939765908044,
      "semi_major_axis_km": 6877.429898013229,
      "eccentricity": 0.0001462,
      "inclination_deg": 42.9988,
      "raan_deg": 134.7035,
      "arg_perigee_deg": 265.9998,
      "mean_anomaly_deg": 145.7822,
      "mean_motion_rev_day": 15.2217121
    },
    {
      "epoch": "2026-04-30T14:00:01.999872Z",
      "apogee_km": 495.7019597306971,
      "perigee_km": 493.48962704450514,
      "latitude_deg": -19.753823828844013,
      "longitude_deg": -95.51898264680611,
      "height_km": 498.4915060805281,
      "semi_major_axis_km": 6872.732793387601,
      "eccentricity": 0.00016095,
      "inclination_deg": 42.9986,
      "raan_deg": 130.498,
      "arg_perigee_deg": 275.0193,
      "mean_anomaly_deg": 294.4615,
      "mean_motion_rev_day": 15.23731947
    },
    {
      "epoch": "2026-05-02T12:00:02.998944Z",
      "apogee_km": 488.92156292512936,
      "perigee_km": 487.331336310197,
      "latitude_deg": -32.84384652331228,
      "longitude_deg": 35.77435848085216,
      "height_km": 496.77168020245017,
      "semi_major_axis_km": 6866.263449617662,
      "eccentricity": 0.0001158,
      "inclination_deg": 43.0001,
      "raan_deg": 119.7105,
      "arg_perigee_deg": 255.7477,
      "mean_anomaly_deg": 51.9205,
      "mean_motion_rev_day": 15.25885928
    },
    {
      "epoch": "2026-05-03T20:00:01.999008Z",
      "apogee_km": 488.9709159343238,
      "perigee_km": 487.1582387179096,
      "latitude_deg": 42.435717744679835,
      "longitude_deg": 27.618499575311564,
      "height_km": 491.9056483097212,
      "semi_major_axis_km": 6866.201577326116,
      "eccentricity": 0.000132,
      "inclination_deg": 43.0007,
      "raan_deg": 112.1972,
      "arg_perigee_deg": 239.718,
      "mean_anomaly_deg": 200.8342,
      "mean_motion_rev_day": 15.25906553
    },
    {
      "epoch": "2026-05-04T20:00:01.999008Z",
      "apogee_km": 486.86506295464824,
      "perigee_km": 485.7694960516401,
      "latitude_deg": -0.4340433437151478,
      "longitude_deg": 124.29873271653935,
      "height_km": 485.7032249952263,
      "semi_major_axis_km": 6864.454279503144,
      "eccentricity": 7.98e-05,
      "inclination_deg": 43.001,
      "raan_deg": 106.5612,
      "arg_perigee_deg": 215.849,
      "mean_anomaly_deg": 324.7038,
      "mean_motion_rev_day": 15.26489203
    }
  ]
}